ONEWEB-0134             
1 47280U 20100Y   24080.56776088  .00000336  00000+0  89967-3 0  9998
2 47280  87.9009 153.5976 0001610 103.5649 256.5659 13.12442557157339
ONEWEB-0135             
1 47281U 20100Z   24080.76469682 -.00000423  00000+0 -12120-2 0  9995
2 47281  87.9016 153.5687 0001853 104.8922 255.2412 13.12443028157386
ONEWEB-0136             
1 47282U 20100AA  24080.55822079  .00000224  00000+0  58809-3 0  9998
2 47282  87.9017 153.5784 0001575 115.5515 244.5776 13.12445087157284
ONEWEB-0137             
1 47283U 20100AB  24080.59157919 -.00000050  00000+0 -17524-3 0  9995
2 47283  87.9011 153.6001 0002025 106.3043 253.8309 13.12441604157193
ONEWEB-0138             
1 47284U 20100AC  24080.72340386  .00000412  00000+0  11102-2 0  9998
2 47284  87.9013 153.5861 0001869 107.0801 253.0532 13.12444093157290
ONEWEB-0139             
1 47285U 20100AD  24080.23739069 -.00000451  00000+0 -12880-2 0  9994
2 47285  87.9017 153.6517 0002400 108.1900 251.9490 13.12445493157305
ONEWEB-0140             
1 47286U 20100AE  24080.56457979  .00000305  00000+0  81108-3 0  9994
2 47286  87.9013 153.5937 0001807 106.1408 253.9919 13.12443904157312
ONEWEB-0141             
1 47287U 20100AF  24080.73690580  .00000370  00000+0  99208-3 0  9993
2 47287  87.9014 153.5576 0002206 101.5859 258.5517 13.12441806157321
